{
  "type": "FeatureCollection",
  "features": [
    {
      "type": "Feature",
      "properties": {
        "norad_id": 32451,
        "name": "FENGYUN 1C DEB",
        "group": "fengyun-1c-debris",
        "lat": -4.703334674478678,
        "lon": -22.844100741566987,
        "alt_km": 1078.8625278178488,
        "timestamp": "2025-12-21T22:41:41.746529+00:00",
        "meta_object_name": "FENGYUN 1C DEB",
        "meta_object_id": "1999-025DBP",
        "meta_epoch": "2025-12-20T17:16:42.554208",
        "meta_mean_motion": 13.86609006,
        "meta_eccentricity": 0.01849677,
        "meta_inclination": 99.9714,
        "meta_ra_of_asc_node": 335.0209,
        "meta_arg_of_pericenter": 173.8447,
        "meta_mean_anomaly": 186.5042,
        "meta_ephemeris_type": 0,
        "meta_classification_type": "U",
        "meta_norad_cat_id": 32451,
        "meta_element_set_no": 999,
        "meta_rev_at_epoch": 61875,
        "meta_bstar": 0.0014005621,
        "meta_mean_motion_dot": 1.814e-05,
        "meta_mean_motion_ddot": 0,
        "tle_line1": "1 32451U 99025DBP 25354.71993697  .00001814  00000+0  14006-2 0  9996",
        "tle_line2": "2 32451  99.9714 335.0209 0184967 173.8447 186.5042 13.86609006618759"
      },
      "geometry": {
        "type": "Point",
        "coordinates": [
          -22.844100741566987,
          -4.703334674478678
        ]
      }
    },
    {
      "type": "Feature",
      "properties": {
        "norad_id": 32453,
        "name": "FENGYUN 1C DEB",
        "group": "fengyun-1c-debris",
        "lat": 67.02683377775621,
        "lon": -117.01728789279443,
        "alt_km": 904.428586164242,
        "timestamp": "2025-12-21T22:41:41.746539+00:00",
        "meta_object_name": "FENGYUN 1C DEB",
        "meta_object_id": "1999-025DBR",
        "meta_epoch": "2025-12-21T12:05:15.722016",
        "meta_mean_motion": 14.02267767,
        "meta_eccentricity": 0.00963783,
        "meta_inclination": 99.372,
        "meta_ra_of_asc_node": 265.4566,
        "meta_arg_of_pericenter": 181.6687,
        "meta_mean_anomaly": 178.4169,
        "meta_ephemeris_type": 0,
        "meta_classification_type": "U",
        "meta_norad_cat_id": 32453,
        "meta_element_set_no": 999,
        "meta_rev_at_epoch": 93551,
        "meta_bstar": 0.00041156422,
        "meta_mean_motion_dot": 6.1e-06,
        "meta_mean_motion_ddot": 0,
        "tle_line1": "1 32453U 99025DBR 25355.50365419  .00000610  00000+0  41156-3 0  9991",
        "tle_line2": "2 32453  99.3720 265.4566 0096378 181.6687 178.4169 14.02267767935514"
      },
      "geometry": {
        "type": "Point",
        "coordinates": [
          -117.01728789279443,
          67.02683377775621
        ]
      }
    },
    {
      "type": "Feature",
      "properties": {
        "norad_id": 32455,
        "name": "FENGYUN 1C DEB",
        "group": "fengyun-1c-debris",
        "lat": 3.2243846680056194,
        "lon": 11.166912333076473,
        "alt_km": 818.9350391830594,
        "timestamp": "2025-12-21T22:41:41.746549+00:00",
        "meta_object_name": "FENGYUN 1C DEB",
        "meta_object_id": "1999-025DBT",
        "meta_epoch": "2025-12-19T18:08:22.954272",
        "meta_mean_motion": 13.92504596,
        "meta_eccentricity": 0.02356741,
        "meta_inclination": 101.733,
        "meta_ra_of_asc_node": 187.728,
        "meta_arg_of_pericenter": 127.7857,
        "meta_mean_anomaly": 234.4892,
        "meta_ephemeris_type": 0,
        "meta_classification_type": "U",
        "meta_norad_cat_id": 32455,
        "meta_element_set_no": 999,
        "meta_rev_at_epoch": 64513,
        "meta_bstar": 0.001718498,
        "meta_mean_motion_dot": 2.717e-05,
        "meta_mean_motion_ddot": 0,
        "tle_line1": "1 32455U 99025DBT 25353.75582123  .00002717  00000+0  17185-2 0  9995",
        "tle_line2": "2 32455 101.7330 187.7280 0235674 127.7857 234.4892 13.92504596645138"
      },
      "geometry": {
        "type": "Point",
        "coordinates": [
          11.166912333076473,
          3.2243846680056194
        ]
      }
    },
    {
      "type": "Feature",
      "properties": {
        "norad_id": 32456,
        "name": "FENGYUN 1C DEB",
        "group": "fengyun-1c-debris",
        "lat": -29.16880094351575,
        "lon": 147.20876251065468,
        "alt_km": 1279.5742391747553,
        "timestamp": "2025-12-21T22:41:41.746561+00:00",
        "meta_object_name": "FENGYUN 1C DEB",
        "meta_object_id": "1999-025DBU",
        "meta_epoch": "2025-12-17T03:48:04.533120",
        "meta_mean_motion": 13.35640436,
        "meta_eccentricity": 0.03794971,
        "meta_inclination": 103.6656,
        "meta_ra_of_asc_node": 133.0133,
        "meta_arg_of_pericenter": 216.4895,
        "meta_mean_anomaly": 140.98,
        "meta_ephemeris_type": 0,
        "meta_classification_type": "U",
        "meta_norad_cat_id": 32456,
        "meta_element_set_no": 999,
        "meta_rev_at_epoch": 60675,
        "meta_bstar": 0.0016364212,
        "meta_mean_motion_dot": 1.184e-05,
        "meta_mean_motion_ddot": 0,
        "tle_line1": "1 32456U 99025DBU 25351.15838580  .00001184  00000+0  16364-2 0  9994",
        "tle_line2": "2 32456 103.6656 133.0133 0379497 216.4895 140.9800 13.35640436606758"
      },
      "geometry": {
        "type": "Point",
        "coordinates": [
          147.20876251065468,
          -29.16880094351575
        ]
      }
    },
    {
      "type": "Feature",
      "properties": {
        "norad_id": 32458,
        "name": "FENGYUN 1C DEB",
        "group": "fengyun-1c-debris",
        "lat": -44.113044088802326,
        "lon": -172.1878716480681,
        "alt_km": 706.6190663592233,
        "timestamp": "2025-12-21T22:41:41.746571+00:00",
        "meta_object_name": "FENGYUN 1C DEB",
        "meta_object_id": "1999-025DBW",
        "meta_epoch": "2025-12-17T07:38:45.791520",
        "meta_mean_motion": 14.62340298,
        "meta_eccentricity": 0.00400557,
        "meta_inclination": 99.0455,
        "meta_ra_of_asc_node": 11.634,
        "meta_arg_of_pericenter": 359.8936,
        "meta_mean_anomaly": 0.2248,
        "meta_ephemeris_type": 0,
        "meta_classification_type": "U",
        "meta_norad_cat_id": 32458,
        "meta_element_set_no": 999,
        "meta_rev_at_epoch": 67856,
        "meta_bstar": 0.0011308111,
        "meta_mean_motion_dot": 5.724e-05,
        "meta_mean_motion_ddot": 0,
        "tle_line1": "1 32458U 99025DBW 25351.31858555  .00005724  00000+0  11308-2 0  9995",
        "tle_line2": "2 32458  99.0455  11.6340 0040055 359.8936   0.2248 14.62340298678565"
      },
      "geometry": {
        "type": "Point",
        "coordinates": [
          -172.1878716480681,
          -44.113044088802326
        ]
      }
    },
    {
      "type": "Feature",
      "properties": {
        "norad_id": 32459,
        "name": "FENGYUN 1C DEB",
        "group": "fengyun-1c-debris",
        "lat": 5.918558572573079,
        "lon": 9.076092995518584,
        "alt_km": 885.5327250905984,
        "timestamp": "2025-12-21T22:41:41.746583+00:00",
        "meta_object_name": "FENGYUN 1C DEB",
        "meta_object_id": "1999-025DBX",
        "meta_epoch": "2025-12-20T18:22:17.200704",
        "meta_mean_motion": 14.42837201,
        "meta_eccentricity": 0.0213645,
        "meta_inclination": 98.3013,
        "meta_ra_of_asc_node": 8.7931,
        "meta_arg_of_pericenter": 162.061,
        "meta_mean_anomaly": 198.8272,
        "meta_ephemeris_type": 0,
        "meta_classification_type": "U",
        "meta_norad_cat_id": 32459,
        "meta_element_set_no": 999,
        "meta_rev_at_epoch": 94666,
        "meta_bstar": 0.00028323998,
        "meta_mean_motion_dot": 1.194e-05,
        "meta_mean_motion_ddot": 0,
        "tle_line1": "1 32459U 99025DBX 25354.76547686  .00001194  00000+0  28324-3 0  9992",
        "tle_line2": "2 32459  98.3013   8.7931 0213645 162.0610 198.8272 14.42837201946664"
      },
      "geometry": {
        "type": "Point",
        "coordinates": [
          9.076092995518584,
          5.918558572573079
        ]
      }
    },
    {
      "type": "Feature",
      "properties": {
        "norad_id": 32460,
        "name": "FENGYUN 1C DEB",
        "group": "fengyun-1c-debris",
        "lat": 81.89028994544307,
        "lon": 58.21363718588167,
        "alt_km": 789.103323317503,
        "timestamp": "2025-12-21T22:41:41.746594+00:00",
        "meta_object_name": "FENGYUN 1C DEB",
        "meta_object_id": "1999-025DBY",
        "meta_epoch": "2025-12-16T16:07:35.360256",
        "meta_mean_motion": 13.89589165,
        "meta_eccentricity": 0.01851829,
        "meta_inclination": 98.0198,
        "meta_ra_of_asc_node": 135.3065,
        "meta_arg_of_pericenter": 113.3101,
        "meta_mean_anomaly": 248.7668,
        "meta_ephemeris_type": 0,
        "meta_classification_type": "U",
        "meta_norad_cat_id": 32460,
        "meta_element_set_no": 999,
        "meta_rev_at_epoch": 65308,
        "meta_bstar": 0.0008481014,
        "meta_mean_motion_dot": 1.158e-05,
        "meta_mean_motion_ddot": 0,
        "tle_line1": "1 32460U 99025DBY 25350.67193704  .00001158  00000+0  84810-3 0  9990",
        "tle_line2": "2 32460  98.0198 135.3065 0185182 113.3101 248.7668 13.89589165653088"
      },
      "geometry": {
        "type": "Point",
        "coordinates": [
          58.21363718588167,
          81.89028994544307
        ]
      }
    }
  ]
}